start=new Date('2023-05-29T00:00:00.000Z').valueOf();
sats=[{"SEMIMAJOR_AXIS":"6925.359","OBJECT_NAME":"STARLINK-1131","COUNTRY_CODE":"US","CENTER_NAME":"EARTH","REF_FRAME":"TEME","OBJECT_TYPE":"PAYLOAD","RA_OF_ASC_NODE":"169.1808","NORAD_CAT_ID":"45047","INCLINATION":"53.0541","EPOCH":"2023-05-28T08:12:47.390688","FILE":"3919546","DECAY_DATE":null,"SITE":"AFETR","TIME_SYSTEM":"UTC","ECCENTRICITY":"0.00012730","MEAN_MOTION":"15.06396504","TLE_LINE2":"2 45047  53.0541 169.1808 0001273  72.2866 287.8262 15.06396504183272","EPHEMERIS_TYPE":"0","OBJECT_ID":"2020-006D","ARG_OF_PERICENTER":"72.2866","MEAN_ANOMALY":"287.8262","ELEMENT_SET_NO":"999","TLE_LINE1":"1 45047U 20006D   23148.34221517  .00001013  00000-0  86908-4 0  9991","APOAPSIS":"548.106","PERIAPSIS":"546.343","LAUNCH_DATE":"2020-01-29","MEAN_MOTION_DOT":"0.00001013","GP_ID":"232704560","REV_AT_EPOCH":"18327","MEAN_ELEMENT_THEORY":"SGP4","BSTAR":"0.00008690800000","PERIOD":"95.592","MEAN_MOTION_DDOT":"0.0000000000000","RCS_SIZE":"LARGE","CLASSIFICATION_TYPE":"U"},{"ARG_OF_PERICENTER":"88.6991","MEAN_ANOMALY":"271.4115","ELEMENT_SET_NO":"999","TIME_SYSTEM":"UTC","ECCENTRICITY":"0.00010160","MEAN_MOTION":"15.06397877","TLE_LINE2":"2 45048  53.0522 169.1470 0001016  88.6991 271.4115 15.06397877183272","OBJECT_ID":"2020-006E","EPHEMERIS_TYPE":"0","EPOCH":"2023-05-28T08:23:24.126720","INCLINATION":"53.0522","FILE":"3919546","DECAY_DATE":null,"SITE":"AFETR","SEMIMAJOR_AXIS":"6925.355","OBJECT_NAME":"STARLINK-1134","CENTER_NAME":"EARTH","COUNTRY_CODE":"US","REF_FRAME":"TEME","OBJECT_TYPE":"PAYLOAD","RA_OF_ASC_NODE":"169.1470","NORAD_CAT_ID":"45048","PERIOD":"95.592","MEAN_MOTION_DDOT":"0.0000000000000","RCS_SIZE":"LARGE","CLASSIFICATION_TYPE":"U","REV_AT_EPOCH":"18327","GP_ID":"232704310","MEAN_ELEMENT_THEORY":"SGP4","BSTAR":"0.00001053700000","MEAN_MOTION_DOT":"-0.00000124","TLE_LINE1":"1 45048U 20006E   23148.34958480 -.00000124  00000-0  10537-4 0  9996","APOAPSIS":"547.924","PERIAPSIS":"546.516","LAUNCH_DATE":"2020-01-29"},{"COUNTRY_CODE":"US","CENTER_NAME":"EARTH","SEMIMAJOR_AXIS":"6876.574","OBJECT_NAME":"STARLINK-1135","NORAD_CAT_ID":"45049","OBJECT_TYPE":"PAYLOAD","RA_OF_ASC_NODE":"146.4991","REF_FRAME":"TEME","EPOCH":"2023-05-28T06:43:38.449632","INCLINATION":"53.0738","SITE":"AFETR","FILE":"3919252","DECAY_DATE":null,"TIME_SYSTEM":"UTC","OBJECT_ID":"2020-006F","EPHEMERIS_TYPE":"0","TLE_LINE2":"2 45049  53.0738 146.4991 0002098 231.5084 128.5724 15.22455468183593","MEAN_MOTION":"15.22455468","ECCENTRICITY":"0.00020980","ARG_OF_PERICENTER":"231.5084","ELEMENT_SET_NO":"999","MEAN_ANOMALY":"128.5724","APOAPSIS":"499.882","TLE_LINE1":"1 45049U 20006F   23148.28030613  .00006565  00000-0  29398-3 0  9997","LAUNCH_DATE":"2020-01-29","PERIAPSIS":"496.996","MEAN_MOTION_DOT":"0.00006565","MEAN_ELEMENT_THEORY":"SGP4","GP_ID":"232669771","REV_AT_EPOCH":"18359","BSTAR":"0.00029398000000","MEAN_MOTION_DDOT":"0.0000000000000","PERIOD":"94.584","CLASSIFICATION_TYPE":"U","RCS_SIZE":"LARGE"},{"MEAN_MOTION_DOT":"-0.00002955","TLE_LINE1":"1 45050U 20006G   23148.29430875 -.00002955  00000-0 -17964-3 0  9991","APOAPSIS":"547.954","LAUNCH_DATE":"2020-01-29","PERIAPSIS":"546.584","MEAN_MOTION_DDOT":"0.0000000000000","PERIOD":"95.593","CLASSIFICATION_TYPE":"U","RCS_SIZE":"LARGE","REV_AT_EPOCH":"18326","GP_ID":"232703809","MEAN_ELEMENT_THEORY":"SGP4","BSTAR":"-0.00017964000000","EPOCH":"2023-05-28T07:03:48.276000","INCLINATION":"53.0526","FILE":"3919546","DECAY_DATE":null,"SITE":"AFETR","COUNTRY_CODE":"US","CENTER_NAME":"EARTH","SEMIMAJOR_AXIS":"6925.404","OBJECT_NAME":"STARLINK-1140","REF_FRAME":"TEME","NORAD_CAT_ID":"45050","RA_OF_ASC_NODE":"169.3916","OBJECT_TYPE":"PAYLOAD","ARG_OF_PERICENTER":"94.6189","ELEMENT_SET_NO":"999","MEAN_ANOMALY":"265.4912","TIME_SYSTEM":"UTC","ECCENTRICITY":"0.00009890","OBJECT_ID":"2020-006G","EPHEMERIS_TYPE":"0","TLE_LINE2":"2 45050  53.0526 169.3916 0000989  94.6189 265.4912 15.06381786183269","MEAN_MOTION":"15.06381786"},{"PERIAPSIS":"251.258","LAUNCH_DATE":"2020-01-29","TLE_LINE1":"1 45051U 20006H   23148.93245782  .04065840  26333-1  62280-2 0  9996","APOAPSIS":"258.291","MEAN_MOTION_DOT":"0.04065840","BSTAR":"0.00622800000000","GP_ID":"232704060","REV_AT_EPOCH":"18449","MEAN_ELEMENT_THEORY":"SGP4","RCS_SIZE":"LARGE","CLASSIFICATION_TYPE":"U","PERIOD":"89.602","MEAN_MOTION_DDOT":"0.0263330000000","REF_FRAME":"TEME","RA_OF_ASC_NODE":"110.5169","OBJECT_TYPE":"PAYLOAD","NORAD_CAT_ID":"45051","OBJECT_NAME":"STARLINK-1141","SEMIMAJOR_AXIS":"6632.909","COUNTRY_CODE":"US","CENTER_NAME":"EARTH","FILE":"3919546","DECAY_DATE":null,"SITE":"AFETR","EPOCH":"2023-05-28T22:22:44.355648","INCLINATION":"53.0332","ECCENTRICITY":"0.00053020","TLE_LINE2":"2 45051  53.0332 110.5169 0005302 157.9063 202.5341 16.07113911184490","MEAN_MOTION":"16.07113911","OBJECT_ID":"2020-006H","EPHEMERIS_TYPE":"0","TIME_SYSTEM":"UTC","MEAN_ANOMALY":"202.5341","ELEMENT_SET_NO":"999","ARG_OF_PERICENTER":"157.9063"},{"EPHEMERIS_TYPE":"0","OBJECT_ID":"2020-006J","MEAN_MOTION":"15.06399202","TLE_LINE2":"2 45052  53.0530 168.7658 0001061  78.8423 281.2685 15.06399202183286","ECCENTRICITY":"0.00010610","TIME_SYSTEM":"UTC","ELEMENT_SET_NO":"999","MEAN_ANOMALY":"281.2685","ARG_OF_PERICENTER":"78.8423","NORAD_CAT_ID":"45052","RA_OF_ASC_NODE":"168.7658","OBJECT_TYPE":"PAYLOAD","REF_FRAME":"TEME","CENTER_NAME":"EARTH","COUNTRY_CODE":"US","OBJECT_NAME":"STARLINK-1148","SEMIMAJOR_AXIS":"6925.351","SITE":"AFETR","FILE":"3919546","DECAY_DATE":null,"INCLINATION":"53.0530","EPOCH":"2023-05-28T10:25:29.371872","BSTAR":"0.00013213000000","MEAN_ELEMENT_THEORY":"SGP4","REV_AT_EPOCH":"18328","GP_ID":"232704811","CLASSIFICATION_TYPE":"U","RCS_SIZE":"LARGE","MEAN_MOTION_DDOT":"0.0000000000000","PERIOD":"95.592","LAUNCH_DATE":"2020-01-29","PERIAPSIS":"546.481","APOAPSIS":"547.951","TLE_LINE1":"1 45052U 20006J   23148.43436773  .00001687  00000-0  13213-3 0  9994","MEAN_MOTION_DOT":"0.00001687"},{"LAUNCH_DATE":"2020-01-29","PERIAPSIS":"467.921","TLE_LINE1":"1 45053U 20006K   23148.65534399  .00010857  00000-0  35758-3 0  9999","APOAPSIS":"471.692","MEAN_MOTION_DOT":"0.00010857","BSTAR":"0.00035758000000","REV_AT_EPOCH":"18391","GP_ID":"232703559","MEAN_ELEMENT_THEORY":"SGP4","CLASSIFICATION_TYPE":"U","RCS_SIZE":"LARGE","MEAN_MOTION_DDOT":"0.0000000000000","PERIOD":"93.994","REF_FRAME":"TEME","NORAD_CAT_ID":"45053","OBJECT_TYPE":"PAYLOAD","RA_OF_ASC_NODE":"121.5244","COUNTRY_CODE":"US","CENTER_NAME":"EARTH","SEMIMAJOR_AXIS":"6847.942","OBJECT_NAME":"STARLINK-1155","DECAY_DATE":null,"FILE":"3919546","SITE":"AFETR","EPOCH":"2023-05-28T15:43:41.720736","INCLINATION":"52.9893","ECCENTRICITY":"0.00027530","OBJECT_ID":"2020-006K","EPHEMERIS_TYPE":"0","TLE_LINE2":"2 45053  52.9893 121.5244 0002753 268.7013  91.3671 15.32013856183911","MEAN_MOTION":"15.32013856","TIME_SYSTEM":"UTC","ELEMENT_SET_NO":"999","MEAN_ANOMALY":"91.3671","ARG_OF_PERICENTER":"268.7013"},{"DECAY_DATE":null,"FILE":"3919546","SITE":"AFETR","INCLINATION":"53.0530","EPOCH":"2023-05-28T18:17:52.194624","REF_FRAME":"TEME","RA_OF_ASC_NODE":"167.2893","OBJECT_TYPE":"PAYLOAD","NORAD_CAT_ID":"45054","SEMIMAJOR_AXIS":"6925.343","OBJECT_NAME":"STARLINK-1156","COUNTRY_CODE":"US","CENTER_NAME":"EARTH","MEAN_ANOMALY":"290.9052","ELEMENT_SET_NO":"999","ARG_OF_PERICENTER":"69.2057","ECCENTRICITY":"0.00011280","MEAN_MOTION":"15.06401663","TLE_LINE2":"2 45054  53.0530 167.2893 0001128  69.2057 290.9052 15.06401663183330","OBJECT_ID":"2020-006L","EPHEMERIS_TYPE":"0","TIME_SYSTEM":"UTC","MEAN_MOTION_DOT":"0.00000904","PERIAPSIS":"546.427","LAUNCH_DATE":"2020-01-29","TLE_LINE1":"1 45054U 20006L   23148.76240966  .00000904  00000-0  79548-4 0  9994","APOAPSIS":"547.990","RCS_SIZE":"LARGE","CLASSIFICATION_TYPE":"U","PERIOD":"95.592","MEAN_MOTION_DDOT":"0.0000000000000","BSTAR":"0.00007954800000","GP_ID":"232703309","REV_AT_EPOCH":"18333","MEAN_ELEMENT_THEORY":"SGP4"},{"MEAN_MOTION_DDOT":"0.0000000000000","PERIOD":"95.592","CLASSIFICATION_TYPE":"U","RCS_SIZE":"LARGE","MEAN_ELEMENT_THEORY":"SGP4","REV_AT_EPOCH":"18328","GP_ID":"232704561","BSTAR":"0.00011492000000","MEAN_MOTION_DOT":"0.00001431","APOAPSIS":"547.999","TLE_LINE1":"1 45057U 20006P   23148.37907770  .00001431  00000-0  11492-3 0  9996","LAUNCH_DATE":"2020-01-29","PERIAPSIS":"546.432","ARG_OF_PERICENTER":"86.6304","ELEMENT_SET_NO":"999","MEAN_ANOMALY":"273.4814","TIME_SYSTEM":"UTC","OBJECT_ID":"2020-006P","EPHEMERIS_TYPE":"0","TLE_LINE2":"2 45057  53.0534 169.0127 0001131  86.6304 273.4814 15.06399325183286","MEAN_MOTION":"15.06399325","ECCENTRICITY":"0.00011310","INCLINATION":"53.0534","EPOCH":"2023-05-28T09:05:52.313280","SITE":"AFETR","DECAY_DATE":null,"FILE":"3919546","COUNTRY_CODE":"US","CENTER_NAME":"EARTH","OBJECT_NAME":"STARLINK-1159","SEMIMAJOR_AXIS":"6925.351","NORAD_CAT_ID":"45057","OBJECT_TYPE":"PAYLOAD","RA_OF_ASC_NODE":"169.0127","REF_FRAME":"TEME"},{"LAUNCH_DATE":"2020-01-29","PERIAPSIS":"546.516","APOAPSIS":"547.925","TLE_LINE1":"1 45058U 20006Q   23148.43805320  .00001312  00000-0  10693-3 0  9992","MEAN_MOTION_DOT":"0.00001312","BSTAR":"0.00010693000000","MEAN_ELEMENT_THEORY":"SGP4","REV_AT_EPOCH":"18329","GP_ID":"232704311","RCS_SIZE":"LARGE","CLASSIFICATION_TYPE":"U","PERIOD":"95.592","MEAN_MOTION_DDOT":"0.0000000000000","OBJECT_TYPE":"PAYLOAD","RA_OF_ASC_NODE":"168.7451","NORAD_CAT_ID":"45058","REF_FRAME":"TEME","SEMIMAJOR_AXIS":"6925.355","OBJECT_NAME":"STARLINK-1162","CENTER_NAME":"EARTH","COUNTRY_CODE":"US","SITE":"AFETR","DECAY_DATE":null,"FILE":"3919546","INCLINATION":"53.0533","EPOCH":"2023-05-28T10:30:47.796480","MEAN_MOTION":"15.06397775","TLE_LINE2":"2 45058  53.0533 168.7451 0001017  91.8857 268.2248 15.06397775183297","EPHEMERIS_TYPE":"0","OBJECT_ID":"2020-006Q","ECCENTRICITY":"0.00010170","TIME_SYSTEM":"UTC","MEAN_ANOMALY":"268.2248","ELEMENT_SET_NO":"999","ARG_OF_PERICENTER":"91.8857"}];
